[{"OBJECT_NAME":"JILIN-1 03","OBJECT_ID":"2017-002B","EPOCH":"2026-03-09T22:57:29.366496","MEAN_MOTION":15.38983812,"ECCENTRICITY":0.00069508,"INCLINATION":97.2,"RA_OF_ASC_NODE":77.6042,"ARG_OF_PERICENTER":152.8712,"MEAN_ANOMALY":207.2899,"EPHEMERIS_TYPE":0,"CLASSIFICATION_TYPE":"U","NORAD_CAT_ID":41914,"ELEMENT_SET_NO":999,"REV_AT_EPOCH":50658,"BSTAR":0.00043938316,"MEAN_MOTION_DOT":0.00016907,"MEAN_MOTION_DDOT":0},{"OBJECT_NAME":"NUSAT-42 (M WONENBURGER)","OBJECT_ID":"2023-084AL","EPOCH":"2026-03-09T22:49:43.859712","MEAN_MOTION":15.40675763,"ECCENTRICITY":0.00061263,"INCLINATION":97.5565,"RA_OF_ASC_NODE":209.2187,"ARG_OF_PERICENTER":242.6372,"MEAN_ANOMALY":117.4251,"EPHEMERIS_TYPE":0,"CLASSIFICATION_TYPE":"U","NORAD_CAT_ID":56966,"ELEMENT_SET_NO":999,"REV_AT_EPOCH":15277,"BSTAR":0.000703676,"MEAN_MOTION_DOT":0.00028707,"MEAN_MOTION_DDOT":0}]
